GLOBALSTAR M084         
1 38040U 11080A   24347.91648101 -.00000079  00000+0  13746-3 0  9995
2 38040  52.0006 255.5503 0000995  48.7408  43.1664 12.62272320599148
GLOBALSTAR M080         
1 38041U 11080B   24347.88861281 -.00000083  00000+0  11565-3 0  9990
2 38041  52.0057 257.1780 0000915  31.8826  52.5073 12.62269859599263
GLOBALSTAR M092         
1 38043U 11080D   24347.86065172 -.00000090  00000+0  78816-4 0  9996
2 38043  52.0097 303.0547 0000651  54.3492 323.3835 12.62270334598429
GLOBALSTAR M090         
1 38044U 11080E   24347.85454742 -.00000062  00000+0  23114-3 0  9990
2 38044  51.9863 206.7551 0001083  91.4242  18.7737 12.62264923600087
GLOBALSTAR M097         
1 39072U 13005A   24347.64584633 -.00000106  00000+0 -15076-4 0  9990
2 39072  52.0031 122.2836 0000872 122.3531 237.7420 12.62268298547256
GLOBALSTAR M093         
1 39073U 13005B   24347.61886383 -.00000097  00000+0  40483-4 0  9993
2 39073  51.9799 115.9633 0000945 127.9653 232.1298 12.62277230547200
